CTC2_L_00525024-03
1 44812U 23253RQ  26070.40849537  .00000000  00000+0  00000-0 0  9998
2 44812  98.2000 276.0000 0000000   0.0000 228.0000 14.60983543    11
CTC2_L_00525024-04
1 44813U 25642VN  26070.40849537  .00000000  00000+0  00000-0 0  9993
2 44813  98.2000 276.0000 0000000   0.0000 273.0000 14.60983543    12
CTC2_L_00525024-05
1 44814U 25709WB  26070.40849537  .00000000  00000+0  00000-0 0  9998
2 44814  98.2000 276.0000 0000000   0.0000 318.0000 14.60983543    13
CTC2_L_00525024-06
1 44815U 25179YF  26070.40849537  .00000000  00000+0  00000-0 0  9990
2 44815  98.2000 276.0000 0000000   0.0000   3.0000 14.60983543    15
CTC2_L_00525024-07
1 44816U 25156LM  26070.40849537  .00000000  00000+0  00000-0 0  9996
2 44816  98.2000 276.0000 0000000   0.0000  48.0000 14.60983543    15
CTC2_L_00525024-08
1 44817U 26353AA  26070.40849537  .00000000  00000+0  00000-0 0  9997
2 44817  98.2000 276.0000 0000000   0.0000  93.0000 14.60983543    16
CTC2_L_00525025-01
1 44818U 24821UU  26070.40849537  .00000000  00000+0  00000-0 0  9996
2 44818  98.2000 288.0000 0000000   0.0000 144.0000 14.60983543    17
CTC2_L_00525025-02
1 44819U 26013OW  26070.40849537  .00000000  00000+0  00000-0 0  9992
2 44819  98.2000 288.0000 0000000   0.0000 189.0000 14.60983543    17
CTC2_L_00525025-03
1 44820U 25845HI  26070.40849537  .00000000  00000+0  00000-0 0  9996
2 44820  98.2000 288.0000 0000000   0.0000 234.0000 14.60983543    10
CTC2_L_00525025-04
1 44821U 23354XK  26070.40849537  .00000000  00000+0  00000-0 0  9990
2 44821  98.2000 288.0000 0000000   0.0000 279.0000 14.60983543    10
CTC2_L_00525025-05
1 44822U 25446AC  26070.40849537  .00000000  00000+0  00000-0 0  9995
2 44822  98.2000 288.0000 0000000   0.0000 324.0000 14.60983543    12
CTC2_L_00525025-06
1 44823U 26795VD  26070.40849537  .00000000  00000+0  00000-0 0  9994
2 44823  98.2000 288.0000 0000000   0.0000   9.0000 14.60983543    13
CTC2_L_00525025-07
1 44824U 23001CO  26070.40849537  .00000000  00000+0  00000-0 0  9992
2 44824  98.2000 288.0000 0000000   0.0000  54.0000 14.60983543    14
CTC2_L_00525025-08
1 44825U 24109MV  26070.40849537  .00000000  00000+0  00000-0 0  9993
2 44825  98.2000 288.0000 0000000   0.0000  99.0000 14.60983543    14
CTC2_L_00525026-01
1 44826U 24511OO  26070.40849537  .00000000  00000+0  00000-0 0  9991
2 44826  98.2000 300.0000 0000000   0.0000 150.0000 14.60983543    18
CTC2_L_00525026-02
1 44827U 26477NX  26070.40849537  .00000000  00000+0  00000-0 0  9995
2 44827  98.2000 300.0000 0000000   0.0000 195.0000 14.60983543    18
CTC2_L_00525026-03
1 44828U 25888HC  26070.40849537  .00000000  00000+0  00000-0 0  9991
2 44828  98.2000 300.0000 0000000   0.0000 240.0000 14.60983543    10
CTC2_L_00525026-04
1 44829U 26557TJ  26070.40849537  .00000000  00000+0  00000-0 0  9996
2 44829  98.2000 300.0000 0000000   0.0000 285.0000 14.60983543    10
CTC2_L_00525026-05
1 44830U 24915AR  26070.40849537  .00000000  00000+0  00000-0 0  9994
2 44830  98.2000 300.0000 0000000   0.0000 330.0000 14.60983543    13
CTC2_L_00525026-06
1 44831U 26349VY  26070.40849537  .00000000  00000+0  00000-0 0  9998
2 44831  98.2000 300.0000 0000000   0.0000  15.0000 14.60983543    14
CTC2_L_00525026-07
1 44832U 26276JC  26070.40849537  .00000000  00000+0  00000-0 0  9998
2 44832  98.2000 300.0000 0000000   0.0000  60.0000 14.60983543    15
CTC2_L_00525026-08
1 44833U 24965ER  26070.40849537  .00000000  00000+0  00000-0 0  9992
2 44833  98.2000 300.0000 0000000   0.0000 105.0000 14.60983543    16
CTC2_L_00525027-01
1 44834U 23982LL  26070.40849537  .00000000  00000+0  00000-0 0  9991
2 44834  98.2000 312.0000 0000000   0.0000 156.0000 14.60983543    16
CTC2_L_00525027-02
1 44835U 22168JN  26070.40849537  .00000000  00000+0  00000-0 0  9997
2 44835  98.2000 312.0000 0000000   0.0000 201.0000 14.60983543    18
CTC2_L_00525027-03
1 44836U 22975ME  26070.40849537  .00000000  00000+0  00000-0 0  9994
2 44836  98.2000 312.0000 0000000   0.0000 246.0000 14.60983543    18
CTC2_L_00525027-04
1 44837U 24192FI  26070.40849537  .00000000  00000+0  00000-0 0  9998
2 44837  98.2000 312.0000 0000000   0.0000 291.0000 14.60983543    19
CTC2_L_00525027-05
1 44838U 23070YP  26070.40849537  .00000000  00000+0  00000-0 0  9993
2 44838  98.2000 312.0000 0000000   0.0000 336.0000 14.60983543    10
CTC2_L_00525027-06
1 44839U 26606VM  26070.40849537  .00000000  00000+0  00000-0 0  9992
2 44839  98.2000 312.0000 0000000   0.0000  21.0000 14.60983543    12
CTC2_L_00525027-07
1 44840U 25561DJ  26070.40849537  .00000000  00000+0  00000-0 0  9993
2 44840  98.2000 312.0000 0000000   0.0000  66.0000 14.60983543    13
CTC2_L_00525027-08
1 44841U 22403YS  26070.40849537  .00000000  00000+0  00000-0 0  9996
2 44841  98.2000 312.0000 0000000   0.0000 111.0000 14.60983543    15
CTC2_L_00525028-01
1 44842U 25451SC  26070.40849537  .00000000  00000+0  00000-0 0  9993
2 44842  98.2000 324.0000 0000000   0.0000 162.0000 14.60983543    15
CTC2_L_00525028-02
1 44843U 23308CJ  26070.40849537  .00000000  00000+0  00000-0 0  9993
2 44843  98.2000 324.0000 0000000   0.0000 207.0000 14.60983543    16
CTC2_L_00525028-03
1 44844U 24578HZ  26070.40849537  .00000000  00000+0  00000-0 0  9994
2 44844  98.2000 324.0000 0000000   0.0000 252.0000 14.60983543    17
CTC2_L_00525028-04
1 44845U 24527RW  26070.40849537  .00000000  00000+0  00000-0 0  9999
2 44845  98.2000 324.0000 0000000   0.0000 297.0000 14.60983543    17
CTC2_L_00525028-05
1 44846U 26235BM  26070.40849537  .00000000  00000+0  00000-0 0  9998
2 44846  98.2000 324.0000 0000000   0.0000 342.0000 14.60983543    19
CTC2_L_00525028-06
1 44847U 26005AR  26070.40849537  .00000000  00000+0  00000-0 0  9994
2 44847  98.2000 324.0000 0000000   0.0000  27.0000 14.60983543    10
CTC2_L_00525028-07
1 44848U 26285VU  26070.40849537  .00000000  00000+0  00000-0 0  9995
2 44848  98.2000 324.0000 0000000   0.0000  72.0000 14.60983543    11
CTC2_L_00525028-08
1 44849U 23622DV  26070.40849537  .00000000  00000+0  00000-0 0  9998
2 44849  98.2000 324.0000 0000000   0.0000 117.0000 14.60983543    12
CTC2_L_00525029-01
1 44850U 25125XU  26070.40849537  .00000000  00000+0  00000-0 0  9990
2 44850  98.2000 336.0000 0000000   0.0000 168.0000 14.60983543    13
CTC2_L_00525029-02
1 44851U 24692UT  26070.40849537  .00000000  00000+0  00000-0 0  9999
2 44851  98.2000 336.0000 0000000   0.0000 213.0000 14.60983543    15
CTC2_L_00525029-03
1 44852U 24714EW  26070.40849537  .00000000  00000+0  00000-0 0  9995
2 44852  98.2000 336.0000 0000000   0.0000 258.0000 14.60983543    15
CTC2_L_00525029-04
1 44853U 24276AT  26070.40849537  .00000000  00000+0  00000-0 0  9999
2 44853  98.2000 336.0000 0000000   0.0000 303.0000 14.60983543    17
CTC2_L_00525029-05
1 44854U 23779JD  26070.40849537  .00000000  00000+0  00000-0 0  9997
2 44854  98.2000 336.0000 0000000   0.0000 348.0000 14.60983543    17
CTC2_L_00525029-06
1 44855U 22010YQ  26070.40849537  .00000000  00000+0  00000-0 0  9995
2 44855  98.2000 336.0000 0000000   0.0000  33.0000 14.60983543    19
CTC2_L_00525029-07
1 44856U 25178NP  26070.40849537  .00000000  00000+0  00000-0 0  9994
2 44856  98.2000 336.0000 0000000   0.0000  78.0000 14.60983543    19
CTC2_L_00525029-08
1 44857U 25717JS  26070.40849537  .00000000  00000+0  00000-0 0  9994
2 44857  98.2000 336.0000 0000000   0.0000 123.0000 14.60983543    11
CTC2_L_00525030-01
1 44858U 22920AR  26070.40849537  .00000000  00000+0  00000-0 0  9998
2 44858  98.2000 348.0000 0000000   0.0000 174.0000 14.60983543    11
CTC2_L_00525030-02
1 44859U 26218TN  26070.40849537  .00000000  00000+0  00000-0 0  9993
2 44859  98.2000 348.0000 0000000   0.0000 219.0000 14.60983543    12
CTC2_L_00525030-03
1 44860U 22864DM  26070.40849537  .00000000  00000+0  00000-0 0  9998
2 44860  98.2000 348.0000 0000000   0.0000 264.0000 14.60983543    14
CTC2_L_00525030-04
1 44861U 25279EY  26070.40849537  .00000000  00000+0  00000-0 0  9992
2 44861  98.2000 348.0000 0000000   0.0000 309.0000 14.60983543    15
CTC2_L_00525030-05
1 44862U 23224NK  26070.40849537  .00000000  00000+0  00000-0 0  9991
2 44862  98.2000 348.0000 0000000   0.0000 354.0000 14.60983543    16
CTC2_L_00525030-06
1 44863U 23444WY  26070.40849537  .00000000  00000+0  00000-0 0  9996
2 44863  98.2000 348.0000 0000000   0.0000  39.0000 14.60983543    17
CTC2_L_00525030-07
1 44864U 25345YC  26070.40849537  .00000000  00000+0  00000-0 0  9999
2 44864  98.2000 348.0000 0000000   0.0000  84.0000 14.60983543    18
CTC2_L_00525030-08
1 44865U 26434TQ  26070.40849537  .00000000  00000+0  00000-0 0  9990
2 44865  98.2000 348.0000 0000000   0.0000 129.0000 14.60983543    19
